GLOBALSTAR M045         
1 25676U 99019A   25197.77756947 -.00000076  00000+0  15122-3 0  9997
2 25676  51.9937 220.9316 0000378 242.6747 288.9619 12.27064085197022
GLOBALSTAR M019         
1 25677U 99019B   25197.73361959 -.00000016  00000+0  77454-3 0  9999
2 25677  51.9901 353.5004 0001632  53.7912 319.3763 12.13873857188737
GLOBALSTAR M044         
1 25678U 99019C   25197.56186233 -.00000099  00000+0 -21246-3 0  9991
2 25678  51.9989 309.0160 0006638 100.4480 272.8266 11.90254820174827
GLOBALSTAR M042         
1 25679U 99019D   25197.85889737 -.00000054  00000+0  36349-3 0  9993
2 25679  52.0038 327.1913 0002758  15.4144 153.1457 12.22084317188885
GLOBALSTAR M025         
1 25770U 99031A   25197.87299998 -.00000055  00000+0  39236-3 0  9994
2 25770  51.9821  90.5023 0001108 191.3815 248.4460 11.22560080485040
GLOBALSTAR M049         
1 25771U 99031B   25197.92000469 -.00000084  00000+0 -63636-3 0  9998
2 25771  51.9866 126.6511 0003308  50.8789 309.2301 11.12117017120735
GLOBALSTAR M047         
1 25772U 99031C   25197.90897307 -.00000052  00000+0  49327-3 0  9997
2 25772  51.9824 120.8055 0016730 315.6714  44.2751 11.31929043474471
GLOBALSTAR M052         
1 25773U 99031D   25197.83781042 -.00000056  00000+0  34314-3 0  9992
2 25773  51.9835 235.0966 0002957 224.0368 307.1478 11.15060237481814
